[{"OBJECT_NAME":"STARLINK-31421","OBJECT_ID":"2024-046T","EPOCH":"2026-03-09T13:26:08.454912","MEAN_MOTION":15.30185382,"ECCENTRICITY":9.45e-5,"INCLINATION":53.1614,"RA_OF_ASC_NODE":155.6822,"ARG_OF_PERICENTER":117.4046,"MEAN_ANOMALY":242.7051,"EPHEMERIS_TYPE":0,"CLASSIFICATION_TYPE":"U","NORAD_CAT_ID":59218,"ELEMENT_SET_NO":999,"REV_AT_EPOCH":11302,"BSTAR":3.0686e-5,"MEAN_MOTION_DOT":5.5e-6,"MEAN_MOTION_DDOT":0},{"OBJECT_NAME":"CZ-6A DEB","OBJECT_ID":"2024-140ABG","EPOCH":"2026-03-09T16:43:29.524800","MEAN_MOTION":15.18896608,"ECCENTRICITY":0.00616087,"INCLINATION":89.2171,"RA_OF_ASC_NODE":295.9508,"ARG_OF_PERICENTER":79.2706,"MEAN_ANOMALY":281.5467,"EPHEMERIS_TYPE":0,"CLASSIFICATION_TYPE":"U","NORAD_CAT_ID":61498,"ELEMENT_SET_NO":999,"REV_AT_EPOCH":8006,"BSTAR":0.0048163661,"MEAN_MOTION_DOT":0.0010689,"MEAN_MOTION_DDOT":0}]
